start=new Date('2021-10-06T00:00:00.000Z').valueOf();
sats=[{"PERIOD":"95.593","EPHEMERIS_TYPE":"0","REF_FRAME":"TEME","MEAN_ANOMALY":"261.2003","GP_ID":"186305188","SEMIMAJOR_AXIS":"6925.377","PERIAPSIS":"546.049","APOAPSIS":"548.434","CENTER_NAME":"EARTH","TLE_LINE1":"1 45188U 20012L   21278.73572266 -.00000486  00000-0 -13731-4 0  9998","DECAY_DATE":null,"ELEMENT_SET_NO":"999","MEAN_MOTION_DDOT":"0.0000000000000","NORAD_CAT_ID":"45188","TIME_SYSTEM":"UTC","OBJECT_TYPE":"PAYLOAD","MEAN_MOTION":"15.06390851","CLASSIFICATION_TYPE":"U","RA_OF_ASC_NODE":"60.9239","OBJECT_NAME":"STARLINK-1228","ARG_OF_PERICENTER":"98.9181","SITE":"AFETR","OBJECT_ID":"2020-012L","INCLINATION":"53.0552","BSTAR":"-0.00001373100000","EPOCH":"2021-10-05T17:39:26.437824","COUNTRY_CODE":"US","ECCENTRICITY":"0.00017220","MEAN_MOTION_DOT":"-0.00000486","REV_AT_EPOCH":"9178","RCS_SIZE":"LARGE","MEAN_ELEMENT_THEORY":"SGP4","TLE_LINE2":"2 45188  53.0552  60.9239 0001722  98.9181 261.2003 15.06390851 91782","LAUNCH_DATE":"2020-02-17","FILE":"3146344"},{"MEAN_MOTION_DDOT":"0.0000000000000","DECAY_DATE":null,"ELEMENT_SET_NO":"999","CLASSIFICATION_TYPE":"U","RA_OF_ASC_NODE":"103.1208","MEAN_MOTION":"15.06391342","OBJECT_TYPE":"PAYLOAD","NORAD_CAT_ID":"45189","TIME_SYSTEM":"UTC","EPHEMERIS_TYPE":"0","PERIOD":"95.593","CENTER_NAME":"EARTH","APOAPSIS":"548.394","TLE_LINE1":"1 45189U 20012M   21278.24549292 -.00000698  00000-0 -27939-4 0  9998","PERIAPSIS":"546.086","SEMIMAJOR_AXIS":"6925.375","GP_ID":"186274823","REF_FRAME":"TEME","MEAN_ANOMALY":"274.1770","ECCENTRICITY":"0.00016660","MEAN_MOTION_DOT":"-0.00000698","EPOCH":"2021-10-05T05:53:30.588288","COUNTRY_CODE":"US","BSTAR":"-0.00002793900000","FILE":"3145988","LAUNCH_DATE":"2020-02-17","TLE_LINE2":"2 45189  53.0545 103.1208 0001666  85.9410 274.1770 15.06391342 88426","MEAN_ELEMENT_THEORY":"SGP4","REV_AT_EPOCH":"8842","RCS_SIZE":"LARGE","ARG_OF_PERICENTER":"85.9410","SITE":"AFETR","OBJECT_NAME":"STARLINK-1230","OBJECT_ID":"2020-012M","INCLINATION":"53.0545"},{"PERIOD":"95.593","EPHEMERIS_TYPE":"0","PERIAPSIS":"546.039","TLE_LINE1":"1 45190U 20012N   21278.79469473 -.00000502  00000-0 -14811-4 0  9991","APOAPSIS":"548.427","CENTER_NAME":"EARTH","MEAN_ANOMALY":"251.5644","REF_FRAME":"TEME","GP_ID":"186303686","SEMIMAJOR_AXIS":"6925.368","MEAN_MOTION_DDOT":"0.0000000000000","ELEMENT_SET_NO":"999","DECAY_DATE":null,"MEAN_MOTION":"15.06393704","CLASSIFICATION_TYPE":"U","RA_OF_ASC_NODE":"60.6569","TIME_SYSTEM":"UTC","NORAD_CAT_ID":"45190","OBJECT_TYPE":"PAYLOAD","SITE":"AFETR","ARG_OF_PERICENTER":"108.5532","OBJECT_NAME":"STARLINK-1234","INCLINATION":"53.0551","OBJECT_ID":"2020-012N","COUNTRY_CODE":"US","EPOCH":"2021-10-05T19:04:21.624672","MEAN_MOTION_DOT":"-0.00000502","ECCENTRICITY":"0.00017240","BSTAR":"-0.00001481100000","LAUNCH_DATE":"2020-02-17","TLE_LINE2":"2 45190  53.0551  60.6569 0001724 108.5532 251.5644 15.06393704 91746","FILE":"3146344","RCS_SIZE":"LARGE","REV_AT_EPOCH":"9174","MEAN_ELEMENT_THEORY":"SGP4"},{"OBJECT_NAME":"STARLINK-1236","ARG_OF_PERICENTER":"83.0091","SITE":"AFETR","OBJECT_ID":"2020-012P","INCLINATION":"53.0551","BSTAR":"-0.00019393000000","ECCENTRICITY":"0.00019690","MEAN_MOTION_DOT":"-0.00003171","EPOCH":"2021-10-05T20:23:58.049088","COUNTRY_CODE":"US","MEAN_ELEMENT_THEORY":"SGP4","REV_AT_EPOCH":"8850","RCS_SIZE":"LARGE","FILE":"3146344","TLE_LINE2":"2 45191  53.0551 100.4152 0001969  83.0091 277.1122 15.06418581 88502","LAUNCH_DATE":"2020-02-17","EPHEMERIS_TYPE":"0","PERIOD":"95.591","SEMIMAJOR_AXIS":"6925.292","GP_ID":"186304938","REF_FRAME":"TEME","MEAN_ANOMALY":"277.1122","CENTER_NAME":"EARTH","APOAPSIS":"548.520","TLE_LINE1":"1 45191U 20012P   21278.84997742 -.00003171  00000-0 -19393-3 0  9997","PERIAPSIS":"545.793","DECAY_DATE":null,"ELEMENT_SET_NO":"999","MEAN_MOTION_DDOT":"0.0000000000000","OBJECT_TYPE":"PAYLOAD","NORAD_CAT_ID":"45191","TIME_SYSTEM":"UTC","CLASSIFICATION_TYPE":"U","RA_OF_ASC_NODE":"100.4152","MEAN_MOTION":"15.06418581"},{"EPOCH":"2021-10-05T19:46:49.455264","COUNTRY_CODE":"US","ECCENTRICITY":"0.00022240","MEAN_MOTION_DOT":"0.00001051","BSTAR":"0.00008945000000","TLE_LINE2":"2 45192  53.0552 100.5301 0002224  86.9228 273.2016 15.06393760 91290","LAUNCH_DATE":"2020-02-17","FILE":"3146344","RCS_SIZE":"LARGE","REV_AT_EPOCH":"9129","MEAN_ELEMENT_THEORY":"SGP4","ARG_OF_PERICENTER":"86.9228","SITE":"AFETR","OBJECT_NAME":"STARLINK-1237","OBJECT_ID":"2020-012Q","INCLINATION":"53.0552","MEAN_MOTION_DDOT":"0.0000000000000","ELEMENT_SET_NO":"999","DECAY_DATE":null,"MEAN_MOTION":"15.06393760","CLASSIFICATION_TYPE":"U","RA_OF_ASC_NODE":"100.5301","NORAD_CAT_ID":"45192","TIME_SYSTEM":"UTC","OBJECT_TYPE":"PAYLOAD","PERIOD":"95.593","EPHEMERIS_TYPE":"0","PERIAPSIS":"545.692","CENTER_NAME":"EARTH","APOAPSIS":"548.773","TLE_LINE1":"1 45192U 20012Q   21278.82418351  .00001051  00000-0  89450-4 0  9995","REF_FRAME":"TEME","MEAN_ANOMALY":"273.2016","SEMIMAJOR_AXIS":"6925.368","GP_ID":"186304688"},{"INCLINATION":"53.0541","OBJECT_ID":"2020-012R","OBJECT_NAME":"STARLINK-1239","SITE":"AFETR","ARG_OF_PERICENTER":"82.9145","MEAN_ELEMENT_THEORY":"SGP4","RCS_SIZE":"LARGE","REV_AT_EPOCH":"9124","FILE":"3146344","LAUNCH_DATE":"2020-02-17","TLE_LINE2":"2 45193  53.0541 100.2734 0001832  82.9145 277.2052 15.06396270 91242","BSTAR":"0.00002651600000","MEAN_MOTION_DOT":"0.00000113","ECCENTRICITY":"0.00018320","COUNTRY_CODE":"US","EPOCH":"2021-10-05T21:06:25.704288","GP_ID":"186303436","SEMIMAJOR_AXIS":"6925.360","MEAN_ANOMALY":"277.2052","REF_FRAME":"TEME","TLE_LINE1":"1 45193U 20012R   21278.87946417  .00000113  00000-0  26516-4 0  9992","CENTER_NAME":"EARTH","APOAPSIS":"548.494","PERIAPSIS":"545.956","EPHEMERIS_TYPE":"0","PERIOD":"95.592","OBJECT_TYPE":"PAYLOAD","TIME_SYSTEM":"UTC","NORAD_CAT_ID":"45193","CLASSIFICATION_TYPE":"U","RA_OF_ASC_NODE":"100.2734","MEAN_MOTION":"15.06396270","ELEMENT_SET_NO":"999","DECAY_DATE":null,"MEAN_MOTION_DDOT":"0.0000000000000"},{"INCLINATION":"53.0544","OBJECT_ID":"2020-012S","SITE":"AFETR","ARG_OF_PERICENTER":"91.8236","OBJECT_NAME":"STARLINK-1240","LAUNCH_DATE":"2020-02-17","TLE_LINE2":"2 45194  53.0544 100.5563 0002108  91.8236 268.2995 15.06387998 91182","FILE":"3146344","RCS_SIZE":"LARGE","REV_AT_EPOCH":"9118","MEAN_ELEMENT_THEORY":"SGP4","COUNTRY_CODE":"US","EPOCH":"2021-10-05T19:36:12.753792","MEAN_MOTION_DOT":"-0.00000839","ECCENTRICITY":"0.00021080","BSTAR":"-0.00003741400000","PERIAPSIS":"545.790","TLE_LINE1":"1 45194U 20012S   21278.81681428 -.00000839  00000-0 -37414-4 0  9991","CENTER_NAME":"EARTH","APOAPSIS":"548.710","MEAN_ANOMALY":"268.2995","REF_FRAME":"TEME","SEMIMAJOR_AXIS":"6925.385","GP_ID":"186304187","PERIOD":"95.593","EPHEMERIS_TYPE":"0","MEAN_MOTION":"15.06387998","CLASSIFICATION_TYPE":"U","RA_OF_ASC_NODE":"100.5563","TIME_SYSTEM":"UTC","NORAD_CAT_ID":"45194","OBJECT_TYPE":"PAYLOAD","MEAN_MOTION_DDOT":"0.0000000000000","ELEMENT_SET_NO":"999","DECAY_DATE":null},{"GP_ID":"186304438","SEMIMAJOR_AXIS":"6925.384","MEAN_ANOMALY":"268.4055","REF_FRAME":"TEME","TLE_LINE1":"1 45195U 20012T   21278.87579272 -.00000839  00000-0 -37419-4 0  9996","APOAPSIS":"548.433","CENTER_NAME":"EARTH","PERIAPSIS":"546.065","EPHEMERIS_TYPE":"0","PERIOD":"95.593","OBJECT_TYPE":"PAYLOAD","TIME_SYSTEM":"UTC","NORAD_CAT_ID":"45195","RA_OF_ASC_NODE":"100.2956","CLASSIFICATION_TYPE":"U","MEAN_MOTION":"15.06388365","DECAY_DATE":null,"ELEMENT_SET_NO":"999","MEAN_MOTION_DDOT":"0.0000000000000","INCLINATION":"53.0531","OBJECT_ID":"2020-012T","OBJECT_NAME":"STARLINK-1241","SITE":"AFETR","ARG_OF_PERICENTER":"91.7129","MEAN_ELEMENT_THEORY":"SGP4","REV_AT_EPOCH":"9129","RCS_SIZE":"LARGE","FILE":"3146344","TLE_LINE2":"2 45195  53.0531 100.2956 0001710  91.7129 268.4055 15.06388365 91290","LAUNCH_DATE":"2020-02-17","BSTAR":"-0.00003741900000","MEAN_MOTION_DOT":"-0.00000839","ECCENTRICITY":"0.00017100","COUNTRY_CODE":"US","EPOCH":"2021-10-05T21:01:08.491008"},{"BSTAR":"-0.00005788500000","MEAN_MOTION_DOT":"-0.00001143","ECCENTRICITY":"0.00019340","COUNTRY_CODE":"US","EPOCH":"2021-10-05T19:09:40.546944","MEAN_ELEMENT_THEORY":"SGP4","REV_AT_EPOCH":"9133","RCS_SIZE":"LARGE","FILE":"3146344","TLE_LINE2":"2 45196  53.0531 100.6394 0001934  86.4015 273.7195 15.06387460 91338","LAUNCH_DATE":"2020-02-17","OBJECT_NAME":"STARLINK-1244","SITE":"AFETR","ARG_OF_PERICENTER":"86.4015","INCLINATION":"53.0531","OBJECT_ID":"2020-012U","ELEMENT_SET_NO":"999","DECAY_DATE":null,"MEAN_MOTION_DDOT":"0.0000000000000","OBJECT_TYPE":"PAYLOAD","TIME_SYSTEM":"UTC","NORAD_CAT_ID":"45196","RA_OF_ASC_NODE":"100.6394","CLASSIFICATION_TYPE":"U","MEAN_MOTION":"15.06387460","EPHEMERIS_TYPE":"0","PERIOD":"95.593","GP_ID":"186305189","SEMIMAJOR_AXIS":"6925.387","MEAN_ANOMALY":"273.7195","REF_FRAME":"TEME","TLE_LINE1":"1 45196U 20012U   21278.79838596 -.00001143  00000-0 -57885-4 0  9993","APOAPSIS":"548.591","CENTER_NAME":"EARTH","PERIAPSIS":"545.913"},{"DECAY_DATE":null,"ELEMENT_SET_NO":"999","MEAN_MOTION_DDOT":"0.0000000000000","NORAD_CAT_ID":"45197","TIME_SYSTEM":"UTC","OBJECT_TYPE":"PAYLOAD","MEAN_MOTION":"15.06395833","RA_OF_ASC_NODE":"100.6844","CLASSIFICATION_TYPE":"U","PERIOD":"95.592","EPHEMERIS_TYPE":"0","REF_FRAME":"TEME","MEAN_ANOMALY":"265.5816","GP_ID":"186303937","SEMIMAJOR_AXIS":"6925.361","PERIAPSIS":"545.947","CENTER_NAME":"EARTH","APOAPSIS":"548.505","TLE_LINE1":"1 45197U 20012V   21278.78732257  .00001025  00000-0  87731-4 0  9990","BSTAR":"0.00008773100000","EPOCH":"2021-10-05T18:53:44.670048","COUNTRY_CODE":"US","ECCENTRICITY":"0.00018470","MEAN_MOTION_DOT":"0.00001025","REV_AT_EPOCH":"9125","RCS_SIZE":"LARGE","MEAN_ELEMENT_THEORY":"SGP4","TLE_LINE2":"2 45197  53.0541 100.6844 0001847  94.5384 265.5816 15.06395833 91255","LAUNCH_DATE":"2020-02-17","FILE":"3146344","OBJECT_NAME":"STARLINK-1269","ARG_OF_PERICENTER":"94.5384","SITE":"AFETR","OBJECT_ID":"2020-012V","INCLINATION":"53.0541"}];
